USA 167                 
1 27691U 03008A   26117.27296600  .00000000  00000+0  00000+0 0  9993
2 27691  10.8635  43.8608 0005070 307.5241 199.9610  1.00273911  6266
USA 169 (MILSTAR-2 4)   
1 27711U 03012A   26117.27470794 -.00000271  00000+0  00000+0 0  9990
2 27711  12.2750  30.2544 0101970   6.4726  69.5759  1.00272712 32444
ASIASAT 4               
1 27718U 03014A   26117.22127906 -.00000229  00000+0  00000+0 0  9991
2 27718   4.5753  76.3682 0002795 328.9574  37.1001  1.00270642 44792
HELLAS-SAT 2            
1 27811U 03020A   26117.22822620 -.00000089  00000+0  00000+0 0  9991
2 27811   7.2309  68.4825 0004408 293.0265 285.8760  1.00272026 42336
THURAYA-2               
1 27825U 03026A   26116.94878646  .00000117  00000+0  00000+0 0  9990
2 27825   8.7634  32.1841 0003477 344.0443 224.2851  1.00273251 83833
OPTUS C1                
1 27831U 03028B   26116.74875339 -.00000159  00000+0  00000+0 0  9990
2 27831   6.7640  70.0207 0006174 324.6442 245.3376  1.00270192 52543
USA 170                 
1 27875U 03040A   26116.99788787  .00000119  00000+0  00000+0 0  9994
2 27875  10.3952  48.4278 0002014 356.6109 193.3955  1.00268595 32489
GALAXY 13 (HORIZONS-1)  
1 27954U 03044A   26117.03472135  .00000123  00000+0  00000+0 0  9994
2 27954   1.2871  84.4613 0002205 314.6722  38.3979  1.00273581 46059
YAMAL 202               
1 28089U 03053A   26116.88575182 -.00000087  00000+0  00000+0 0  9992
2 28089   6.2149  71.5465 0003877 296.6615 329.1005  1.00271073 82189
UFO 11 (USA 174)        
1 28117U 03057A   26116.89396483 -.00000111  00000+0  00000+0 0  9992
2 28117   8.9344  34.0784 0002718 347.4563 230.6117  1.00272084 81930
USA 176 (DSP 22)        
1 28158U 04004A   26117.19141821 -.00000288  00000+0  00000+0 0  9993
2 28158  11.9956  26.4487 0002070 303.5090 240.7546  1.00424064 32427
ABS-4 (MOBISAT-1)       
1 28184U 04007A   26117.00516789  .00000032  00000+0  00000+0 0  9990
2 28184   5.9135  72.6159 0005442 326.0194 239.1963  1.00272956 51829
AMC-11                  
1 28252U 04017A   26117.19909887  .00000027  00000+0  00000+0 0  9996
2 28252   0.1579  76.7085 0000625 334.3227  88.3670  0.99091624 80351
INTELSAT 10-02          
1 28358U 04022A   26117.22267126  .00000000  00000+0  00000+0 0  9997
2 28358   0.0153  73.7645 0001266   0.9311 219.6436  1.00270002 80043
ANIK F2                 
1 28378U 04027A   26117.20962398 -.00000057  00000+0  00000+0 0  9998
2 28378   3.1565  80.1053 0004394 333.5472 125.8797  1.00271671 40754
AMC-15                  
1 28446U 04041A   26117.27828138 -.00000099  00000+0  00000+0 0  9996
2 28446   0.0512  56.1768 0002395 334.6186 179.5915  1.00272145 78797
NSS-10                  
1 28526U 05003A   26116.77177037 -.00000258  00000+0  00000+0 0  9990
2 28526   6.3239  71.0646 0003150 319.5106  64.5797  1.00271746 52649
